H1 CPF 01  gfz 2022 10 22 12  7952 tandemx   
H2 1003001  6202 36605    2022 10 22 12 59 42 2022 10 27 00 00 42   120 1 1  0 0 0
H9
10 0 59874  63342.000000  0   -3138295.719    450259.709  -6122839.984
10 0 59874  63462.000000  0   -2303171.828    610265.673  -6470400.951
10 0 59874  63582.000000  0   -1425566.784    744711.848  -6705056.632
10 0 59874  63702.000000  0    -521169.664    850669.040  -6822770.160
10 0 59874  63822.000000  0     393839.291    925978.964  -6821516.972
10 0 59874  63942.000000  0    1303069.641    969295.414  -6701316.797
10 0 59874  64062.000000  0    2190208.326    980107.792  -6464235.651
10 0 59874  64182.000000  0    3039306.673    958746.453  -6114353.949
10 0 59874  64302.000000  0    3835062.944    906369.475  -5657702.714
10 0 59874  64422.000000  0    4563095.658    824930.563  -5102169.869
10 0 59874  64542.000000  0    5210206.049    717129.233  -4457376.025
10 0 59874  64662.000000  0    5764624.058    586343.952  -3734518.469
10 0 59874  64782.000000  0    6216231.410    436548.584  -2946185.668
10 0 59874  64902.000000  0    6556757.987    272214.479  -2106145.077
10 0 59874  65022.000000  0    6779947.217     98199.533  -1229105.119
10 0 59874  65142.000000  0    6881682.591    -80373.020   -330455.390
10 0 59874  65262.000000  0    6860073.095   -258242.658    574007.639
10 0 59874  65382.000000  0    6715495.767   -430144.415   1468365.498
10 0 59874  65502.000000  0    6450592.250   -590942.449   2336866.683
10 0 59874  65622.000000  0    6070219.114   -735760.824   3164213.997
10 0 59874  65742.000000  0    5581352.189   -860108.086   3935841.055
10 0 59874  65862.000000  0    4992951.617   -959992.292   4638173.251
10 0 59874  65982.000000  0    4315787.628  -1032024.921   5258869.509
10 0 59874  66102.000000  0    3562232.732  -1073508.653   5787037.910
10 0 59874  66222.000000  0    2746026.664  -1082508.946   6213423.254
10 0 59874  66342.000000  0    1882018.780  -1057908.269   6530563.666
10 0 59874  66462.000000  0     985893.467   -999441.750   6732916.185
10 0 59874  66582.000000  0      73881.602   -907712.923   6816948.101
10 0 59874  66702.000000  0    -837534.105   -784189.712   6781193.410
10 0 59874  66822.000000  0   -1731915.757   -631181.209   6626276.010
10 0 59874  66942.000000  0   -2593165.204   -451794.737   6354899.295
10 0 59874  67062.000000  0   -3405812.914   -249874.308   5971802.873
10 0 59874  67182.000000  0   -4155297.948    -29921.289   5483685.911
10 0 59874  67302.000000  0   -4828233.976    203001.378   4899096.232
10 0 59874  67422.000000  0   -5412655.476    443379.398   4228285.992
10 0 59874  67542.000000  0   -5898239.276    685370.337   3483035.585
10 0 59874  67662.000000  0   -6276495.964    922937.106   2676449.109
10 0 59874  67782.000000  0   -6540928.345   1149988.891   1822723.484
10 0 59874  67902.000000  0   -6687151.761   1360525.596    936895.072
10 0 59874  68022.000000  0   -6712973.490   1548782.873     34567.992
10 0 59874  68142.000000  0   -6618426.850   1709373.755   -868369.923
10 0 59874  68262.000000  0   -6405759.784   1837422.457  -1756035.727
10 0 59874  68382.000000  0   -6079380.111   1928688.080  -2612838.385
10 0 59874  68502.000000  0   -5645757.445   1979675.237  -3423759.993
10 0 59874  68622.000000  0   -5113283.822   1987727.339  -4174622.886
10 0 59874  68742.000000  0   -4492099.010   1951101.111  -4852336.376
10 0 59874  68862.000000  0   -3793885.693   1869021.230  -5445119.692
10 0 59874  68982.000000  0   -3031640.671   1741714.402  -5942697.682
10 0 59874  69102.000000  0   -2219427.514   1570422.341  -6336468.785
10 0 59874  69222.000000  0   -1372113.434   1357393.650  -6619642.826
10 0 59874  69342.000000  0    -505097.681   1105854.838  -6787345.679
10 0 59874  69462.000000  0     365963.326    819961.505  -6836693.317
10 0 59874  69582.000000  0    1225430.751    504731.214  -6766836.806
10 0 59874  69702.000000  0    2057958.624    165957.168  -6578977.060
10 0 59874  69822.000000  0    2848761.693   -189895.431  -6276345.594
10 0 59874  69942.000000  0    3583874.002   -555808.514  -5864155.312
10 0 59874  70062.000000  0    4250393.047   -924344.849  -5349518.684
10 0 59874  70182.000000  0    4836707.622  -1287794.058  -4741337.374
10 0 59874  70302.000000  0    5332706.411  -1638329.809  -4050159.842
10 0 59874  70422.000000  0    5729961.083  -1968173.777  -3288008.362
10 0 59874  70542.000000  0    6021880.479  -2269763.772  -2468177.371
10 0 59874  70662.000000  0    6203831.391  -2535922.420  -1605005.328
10 0 59874  70782.000000  0    6273222.201  -2760021.819   -713624.291
10 0 59874  70902.000000  0    6229547.518  -2936140.373    190308.351
10 0 59874  71022.000000  0    6074391.364  -3059207.584   1090890.916
10 0 59874  71142.000000  0    5811389.098  -3125132.903   1972266.006
10 0 59874  71262.000000  0    5446145.446  -3130914.767   2818909.465
10 0 59874  71382.000000  0    4986113.811  -3074727.280   3615911.750
10 0 59874  71502.000000  0    4440438.971  -2955980.973   4349246.355
10 0 59874  71622.000000  0    3819769.956  -2775358.816   5006019.533
10 0 59874  71742.000000  0    3136044.120  -2534826.101   5574698.988
10 0 59874  71862.000000  0    2402249.250  -2237612.219   6045313.452
10 0 59874  71982.000000  0    1632171.049  -1888167.087   6409622.729
10 0 59874  72102.000000  0     840129.871  -1492093.091   6661256.261
10 0 59874  72222.000000  0      40711.708  -1056053.441   6795818.447
10 0 59874  72342.000000  0    -751500.788   -587658.576   6810960.102
10 0 59874  72462.000000  0   -1522193.197    -95333.163   6706416.268
10 0 59874  72582.000000  0   -2257576.853    411835.100   6484010.620
10 0 59874  72702.000000  0   -2944634.931    924262.520   6147625.992
10 0 59874  72822.000000  0   -3571353.804   1432049.429   5703141.247
10 0 59874  72942.000000  0   -4126936.506   1925170.594   5158335.045
10 0 59874  73062.000000  0   -4601994.848   2393673.314   4522756.252
10 0 59874  73182.000000  0   -4988715.180   2827879.344   3807560.720
10 0 59874  73302.000000  0   -5280993.481   3218585.618   3025318.096
10 0 59874  73422.000000  0   -5474538.312   3557259.902   2189791.977
10 0 59874  73542.000000  0   -5566939.012   3836227.871   1315695.895
10 0 59874  73662.000000  0   -5557695.970   4048845.208    418427.791
10 0 59874  73782.000000  0   -5448211.128   4189649.982   -486208.868
10 0 59874  73902.000000  0   -5241741.083   4254492.512  -1382291.860
10 0 59874  74022.000000  0   -4943312.481   4240639.306  -2254070.295
10 0 59874  74142.000000  0   -4559600.431   4146846.422  -3086250.057
10 0 59874  74262.000000  0   -4098775.469   3973401.926  -3864266.689
10 0 59874  74382.000000  0   -3570323.439   3722137.016  -4574540.663
10 0 59874  74502.000000  0   -2984843.644   3396406.736  -5204710.357
10 0 59874  74622.000000  0   -2353832.014   3001041.203  -5743839.042
10 0 59874  74742.000000  0   -1689452.701   2542269.700  -6182596.128
10 0 59874  74862.000000  0   -1004301.663   2027617.309  -6513407.730
10 0 59874  74982.000000  0    -311169.491   1465778.664  -6730575.143
10 0 59874  75102.000000  0     377193.260    866470.729  -6830362.769
10 0 59874  75222.000000  0    1048304.334    240267.377  -6811055.962
10 0 59874  75342.000000  0    1690171.868   -401583.580  -6672988.063
10 0 59874  75462.000000  0    2291503.312  -1047357.682  -6418533.752
10 0 59874  75582.000000  0    2841900.025  -1685062.312  -6052073.057
10 0 59874  75702.000000  0    3332035.241  -2302653.651  -5579923.856
10 0 59874  75822.000000  0    3753813.916  -2888261.023  -5010245.441
10 0 59874  75942.000000  0    4100510.830  -3430415.470  -4352907.632
10 0 59874  76062.000000  0    4366881.679  -3918274.704  -3619329.418
10 0 59874  76182.000000  0    4549248.498  -4341842.262  -2822290.556
10 0 59874  76302.000000  0    4645556.429  -4692176.531  -1975714.913
10 0 59874  76422.000000  0    4655399.049  -4961584.093  -1094429.512
10 0 59874  76542.000000  0    4580010.141  -5143792.416   -193902.455
10 0 59874  76662.000000  0    4422221.856  -5234095.557    710034.096
10 0 59874  76782.000000  0    4186390.942  -5229470.226   1601470.003
10 0 59874  76902.000000  0    3878292.844  -5128657.356   2464706.946
10 0 59874  77022.000000  0    3504987.221  -4932208.314   3284542.554
10 0 59874  77142.000000  0    3074659.132  -4642494.726   4046545.427
10 0 59874  77262.000000  0    2596439.270  -4263680.547   4737313.729
10 0 59874  77382.000000  0    2080208.630  -3801658.279   5344712.705
10 0 59874  77502.000000  0    1536392.033  -3263951.535   5858086.852
10 0 59874  77622.000000  0     975744.801  -2659585.265   6268443.388
10 0 59874  77742.000000  0     409138.235  -1998928.562   6568603.525
10 0 59874  77862.000000  0    -152651.840  -1293512.910   6753321.224
10 0 59874  77982.000000  0    -699148.984   -555828.922   6819370.092
10 0 59874  78102.000000  0   -1220370.422    200896.175   6765596.289
10 0 59874  78222.000000  0   -1707008.842    962935.438   6592937.242
10 0 59874  78342.000000  0   -2150598.207   1716310.444   6304406.175
10 0 59874  78462.000000  0   -2543661.698   2447046.869   5905042.838
10 0 59874  78582.000000  0   -2879838.944   3141434.198   5401831.026
10 0 59874  78702.000000  0   -3153991.561   3786285.095   4803583.054
10 0 59874  78822.000000  0   -3362284.871   4369190.157   4120791.406
10 0 59874  78942.000000  0   -3502243.153   4878762.897   3365448.933
10 0 59874  79062.000000  0   -3572777.269   5304869.478   2550839.608
10 0 59874  79182.000000  0   -3574183.652   5638836.862   1691302.966
10 0 59874  79302.000000  0   -3508114.422   5873633.688    801977.791
10 0 59874  79422.000000  0   -3377520.274   6004022.321   -101469.954
10 0 59874  79542.000000  0   -3186566.099   6026675.879  -1003132.473
10 0 59874  79662.000000  0   -2940521.899   5940255.493  -1887150.790
10 0 59874  79782.000000  0   -2645629.687   5745445.529  -2738003.849
99
